[{"OBJECT_NAME":"STARLINK-33761","OBJECT_ID":"2025-069Y","EPOCH":"2026-03-09T11:19:25.899456","MEAN_MOTION":15.30211163,"ECCENTRICITY":0.0001032,"INCLINATION":53.1595,"RA_OF_ASC_NODE":143.3119,"ARG_OF_PERICENTER":71.7687,"MEAN_ANOMALY":288.3426,"EPHEMERIS_TYPE":0,"CLASSIFICATION_TYPE":"U","NORAD_CAT_ID":63455,"ELEMENT_SET_NO":999,"REV_AT_EPOCH":5337,"BSTAR":0.001022092,"MEAN_MOTION_DOT":0.00030045,"MEAN_MOTION_DDOT":0},{"OBJECT_NAME":"COSMOS 2251 DEB","OBJECT_ID":"1993-036DE","EPOCH":"2026-03-09T20:53:28.838688","MEAN_MOTION":15.29467846,"ECCENTRICITY":0.00306247,"INCLINATION":73.7716,"RA_OF_ASC_NODE":223.0836,"ARG_OF_PERICENTER":342.1726,"MEAN_ANOMALY":17.8397,"EPHEMERIS_TYPE":0,"CLASSIFICATION_TYPE":"U","NORAD_CAT_ID":33901,"ELEMENT_SET_NO":999,"REV_AT_EPOCH":90839,"BSTAR":0.0037194515,"MEAN_MOTION_DOT":0.00109321,"MEAN_MOTION_DDOT":0}]
